{
"type": "FeatureCollection",
"name": "hd3_counties",
"crs": { "type": "name", "properties": { "name": "urn:ogc:def:crs:OGC:1.3:CRS84" } },
"features": [
{ "type": "Feature", "properties": { "NAME": "Gem", "GEOID": "16045" }, "geometry": { "type": "Polygon", "coordinates": [ [ [ -116.45207, 44.15146 ], [ -116.45234, 44.13782 ], [ -116.45255, 44.06541 ], [ -116.53212, 44.06602 ], [ -116.53217, 44.00884 ], [ -116.57214, 44.00921 ], [ -116.57222, 43.98048 ], [ -116.61225, 43.98098 ], [ -116.7125, 43.98133 ], [ -116.71224, 43.87976 ], [ -116.71276, 43.87474 ], [ -116.71267, 43.80716 ], [ -116.55241, 43.8071 ], [ -116.5125, 43.80716 ], [ -116.43323, 43.80741 ], [ -116.33396, 43.80724 ], [ -116.27402, 43.80736 ], [ -116.27356, 43.90871 ], [ -116.27363, 43.97991 ], [ -116.2733, 44.03729 ], [ -116.27356, 44.0946 ], [ -116.27307, 44.15123 ], [ -116.21387, 44.15139 ], [ -116.21317, 44.25561 ], [ -116.21291, 44.32437 ], [ -116.15229, 44.32452 ], [ -116.15249, 44.40999 ], [ -116.15227, 44.45333 ], [ -116.15242, 44.49883 ], [ -116.15702, 44.49893 ], [ -116.16022, 44.49807 ], [ -116.17656, 44.50066 ], [ -116.18538, 44.49468 ], [ -116.19328, 44.49367 ], [ -116.19691, 44.49826 ], [ -116.21779, 44.50856 ], [ -116.22038, 44.49739 ], [ -116.22739, 44.49269 ], [ -116.23387, 44.48126 ], [ -116.23194, 44.47685 ], [ -116.23642, 44.46977 ], [ -116.23614, 44.46471 ], [ -116.24156, 44.46198 ], [ -116.24581, 44.46469 ], [ -116.25597, 44.4663 ], [ -116.26467, 44.4643 ], [ -116.26991, 44.46106 ], [ -116.28007, 44.4584 ], [ -116.2983, 44.4482 ], [ -116.29988, 44.44458 ], [ -116.3062, 44.43225 ], [ -116.30829, 44.42344 ], [ -116.31934, 44.42118 ], [ -116.31912, 44.40532 ], [ -116.3236, 44.39313 ], [ -116.32232, 44.38703 ], [ -116.32743, 44.38305 ], [ -116.32912, 44.37633 ], [ -116.33578, 44.36515 ], [ -116.33229, 44.35844 ], [ -116.33123, 44.34869 ], [ -116.34018, 44.33679 ], [ -116.34108, 44.32749 ], [ -116.34739, 44.3221 ], [ -116.34167, 44.31069 ], [ -116.34384, 44.29881 ], [ -116.35119, 44.28776 ], [ -116.34502, 44.28737 ], [ -116.34179, 44.277 ], [ -116.34422, 44.27384 ], [ -116.34234, 44.26814 ], [ -116.34458, 44.26369 ], [ -116.34403, 44.25642 ], [ -116.34928, 44.25189 ], [ -116.35025, 44.24503 ], [ -116.34639, 44.24125 ], [ -116.35148, 44.23782 ], [ -116.34744, 44.23419 ], [ -116.34361, 44.22577 ], [ -116.34768, 44.22154 ], [ -116.34332, 44.2178 ], [ -116.34879, 44.21061 ], [ -116.35703, 44.20723 ], [ -116.35538, 44.20321 ], [ -116.35665, 44.19445 ], [ -116.35368, 44.18635 ], [ -116.3566, 44.1824 ], [ -116.35319, 44.17552 ], [ -116.35411, 44.16766 ], [ -116.36028, 44.15422 ], [ -116.35849, 44.15116 ], [ -116.39261, 44.15103 ], [ -116.45207, 44.15146 ] ] ] } },
{ "type": "Feature", "properties": { "NAME": "Adams", "GEOID": "16003" }, "geometry": { "type": "Polygon", "coordinates": [ [ [ -116.15702, 44.49893 ], [ -116.158, 44.50652 ], [ -116.16425, 44.5133 ], [ -116.16107, 44.51505 ], [ -116.16099, 44.52162 ], [ -116.16533, 44.53975 ], [ -116.17137, 44.5478 ], [ -116.17374, 44.55841 ], [ -116.17631, 44.561 ], [ -116.17374, 44.56888 ], [ -116.17621, 44.57872 ], [ -116.18357, 44.58366 ], [ -116.17664, 44.60113 ], [ -116.17881, 44.60505 ], [ -116.17598, 44.61245 ], [ -116.172, 44.61449 ], [ -116.17014, 44.62441 ], [ -116.17373, 44.63701 ], [ -116.17205, 44.64232 ], [ -116.17756, 44.64594 ], [ -116.17767, 44.6519 ], [ -116.16974, 44.65702 ], [ -116.16236, 44.68036 ], [ -116.16354, 44.68913 ], [ -116.15949, 44.69425 ], [ -116.1576, 44.70374 ], [ -116.16078, 44.70927 ], [ -116.16841, 44.7114 ], [ -116.18349, 44.72615 ], [ -116.17715, 44.73101 ], [ -116.17924, 44.73627 ], [ -116.17695, 44.74595 ], [ -116.18518, 44.74853 ], [ -116.19218, 44.75358 ], [ -116.19366, 44.75881 ], [ -116.19844, 44.76138 ], [ -116.20231, 44.76721 ], [ -116.20628, 44.76697 ], [ -116.21121, 44.78087 ], [ -116.20817, 44.7831 ], [ -116.20246, 44.79595 ], [ -116.20398, 44.803 ], [ -116.20192, 44.80631 ], [ -116.19831, 44.82401 ], [ -116.19912, 44.83458 ], [ -116.19824, 44.84427 ], [ -116.19542, 44.85299 ], [ -116.19701, 44.86422 ], [ -116.19026, 44.86547 ], [ -116.18847, 44.87125 ], [ -116.19112, 44.8758 ], [ -116.18755, 44.87978 ], [ -116.18643, 44.88774 ], [ -116.17462, 44.88737 ], [ -116.17276, 44.90097 ], [ -116.16105, 44.90184 ], [ -116.15752, 44.92643 ], [ -116.15492, 44.92867 ], [ -116.15815, 44.93519 ], [ -116.15336, 44.93759 ], [ -116.15554, 44.9421 ], [ -116.14717, 44.94322 ], [ -116.14273, 44.94062 ], [ -116.13068, 44.94191 ], [ -116.12186, 44.95292 ], [ -116.12314, 44.95483 ], [ -116.11539, 44.96195 ], [ -116.11574, 44.96867 ], [ -116.11296, 44.97597 ], [ -116.11856, 44.98019 ], [ -116.11987, 44.9846 ], [ -116.12769, 44.98691 ], [ -116.12758, 44.9938 ], [ -116.13498, 45.00079 ], [ -116.13427, 45.00814 ], [ -116.12802, 45.01492 ], [ -116.12859, 45.02093 ], [ -116.11755, 45.02108 ], [ -116.11445, 45.02621 ], [ -116.1047, 45.03078 ], [ -116.1022, 45.0363 ], [ -116.10291, 45.04538 ], [ -116.10558, 45.05021 ], [ -116.09543, 45.05636 ], [ -116.09014, 45.06401 ], [ -116.0972, 45.06913 ], [ -116.11272, 45.07445 ], [ -116.12897, 45.07531 ], [ -116.13431, 45.07863 ], [ -116.14011, 45.07832 ], [ -116.13913, 45.08685 ], [ -116.14213, 45.08873 ], [ -116.13949, 45.09968 ], [ -116.14451, 45.10611 ], [ -116.14939, 45.10798 ], [ -116.25007, 45.10807 ], [ -116.27027, 45.10872 ], [ -116.30475, 45.10879 ], [ -116.30213, 45.11126 ], [ -116.30415, 45.11916 ], [ -116.28597, 45.12873 ], [ -116.28309, 45.13722 ], [ -116.28819, 45.143 ], [ -116.28721, 45.1466 ], [ -116.29507, 45.14779 ], [ -116.29813, 45.15389 ], [ -116.30376, 45.17207 ], [ -116.30108, 45.18452 ], [ -116.30432, 45.19251 ], [ -116.31068, 45.19902 ], [ -116.31, 45.2033 ], [ -116.31273, 45.21139 ], [ -116.32514, 45.23111 ], [ -116.32579, 45.23554 ], [ -116.3307, 45.2395 ], [ -116.33013, 45.24479 ], [ -116.33497, 45.255 ], [ -116.34111, 45.26182 ], [ -116.34288, 45.26787 ], [ -116.45654, 45.26778 ], [ -116.55758, 45.26803 ], [ -116.57701, 45.26773 ], [ -116.63862, 45.26807 ], [ -116.68649, 45.26761 ], [ -116.69139, 45.26374 ], [ -116.69605, 45.25468 ], [ -116.69876, 45.24518 ], [ -116.7037, 45.2401 ], [ -116.70411, 45.22815 ], [ -116.70975, 45.21724 ], [ -116.70954, 45.20301 ], [ -116.71768, 45.18436 ], [ -116.7242, 45.1715 ], [ -116.72419, 45.16292 ], [ -116.72802, 45.15424 ], [ -116.72876, 45.14438 ], [ -116.7333, 45.13849 ], [ -116.74553, 45.13304 ], [ -116.74686, 45.12422 ], [ -116.75284, 45.12177 ], [ -116.75464, 45.11397 ], [ -116.77485, 45.10554 ], [ -116.78354, 45.0936 ], [ -116.78371, 45.07697 ], [ -116.79088, 45.06995 ], [ -116.79733, 45.06027 ], [ -116.80858, 45.05065 ], [ -116.81432, 45.04833 ], [ -116.82513, 45.03784 ], [ -116.8425, 45.0299 ], [ -116.84804, 45.02173 ], [ -116.84494, 45.0138 ], [ -116.84463, 45.00143 ], [ -116.85755, 44.98257 ], [ -116.85748, 44.97673 ], [ -116.85202, 44.97203 ], [ -116.84355, 44.97541 ], [ -116.8405, 44.98255 ], [ -116.83659, 44.98404 ], [ -116.82627, 44.98249 ], [ -116.83645, 44.96924 ], [ -116.84956, 44.96359 ], [ -116.85141, 44.95984 ], [ -116.84646, 44.95152 ], [ -116.8357, 44.94063 ], [ -116.83199, 44.93301 ], [ -116.83847, 44.9236 ], [ -116.83896, 44.91783 ], [ -116.84292, 44.90891 ], [ -116.84889, 44.90072 ], [ -116.85243, 44.88758 ], [ -116.86534, 44.8706 ], [ -116.876, 44.86668 ], [ -116.88359, 44.85828 ], [ -116.88988, 44.85517 ], [ -116.89862, 44.85374 ], [ -116.89659, 44.84654 ], [ -116.89971, 44.84061 ], [ -116.62503, 44.83895 ], [ -116.62415, 44.66327 ], [ -116.61916, 44.65764 ], [ -116.60941, 44.65136 ], [ -116.59926, 44.63686 ], [ -116.59825, 44.62535 ], [ -116.60321, 44.61519 ], [ -116.57525, 44.61479 ], [ -116.52917, 44.61515 ], [ -116.5289, 44.49155 ], [ -116.40765, 44.44444 ], [ -116.29988, 44.44458 ], [ -116.2983, 44.4482 ], [ -116.28007, 44.4584 ], [ -116.26991, 44.46106 ], [ -116.26467, 44.4643 ], [ -116.25597, 44.4663 ], [ -116.24581, 44.46469 ], [ -116.24156, 44.46198 ], [ -116.23614, 44.46471 ], [ -116.23642, 44.46977 ], [ -116.23194, 44.47685 ], [ -116.23387, 44.48126 ], [ -116.22739, 44.49269 ], [ -116.22038, 44.49739 ], [ -116.21779, 44.50856 ], [ -116.19691, 44.49826 ], [ -116.19328, 44.49367 ], [ -116.18538, 44.49468 ], [ -116.17656, 44.50066 ], [ -116.16022, 44.49807 ], [ -116.15702, 44.49893 ] ] ] } },
{ "type": "Feature", "properties": { "NAME": "Payette", "GEOID": "16075" }, "geometry": { "type": "Polygon", "coordinates": [ [ [ -116.89779, 44.15259 ], [ -116.90333, 44.14442 ], [ -116.91122, 44.13999 ], [ -116.91424, 44.1273 ], [ -116.92564, 44.11893 ], [ -116.92953, 44.11306 ], [ -116.9283, 44.10733 ], [ -116.9337, 44.10004 ], [ -116.94481, 44.09357 ], [ -116.9672, 44.09094 ], [ -116.97709, 44.08582 ], [ -116.97493, 44.07297 ], [ -116.97526, 44.06366 ], [ -116.97329, 44.05817 ], [ -116.97319, 44.04942 ], [ -116.959, 44.04525 ], [ -116.95279, 44.03994 ], [ -116.94336, 44.03565 ], [ -116.93734, 44.02938 ], [ -116.9345, 44.02122 ], [ -116.93761, 44.00949 ], [ -116.94488, 44.00359 ], [ -116.93585, 43.99087 ], [ -116.93852, 43.98503 ], [ -116.95833, 43.9835 ], [ -116.96737, 43.97705 ], [ -116.97605, 43.97506 ], [ -116.97088, 43.9683 ], [ -116.96168, 43.96817 ], [ -116.96048, 43.96341 ], [ -116.97049, 43.95976 ], [ -116.96126, 43.956 ], [ -116.96254, 43.94699 ], [ -116.96821, 43.94188 ], [ -116.96858, 43.93605 ], [ -116.96181, 43.9328 ], [ -116.95915, 43.92874 ], [ -116.96153, 43.91839 ], [ -116.98054, 43.91483 ], [ -116.97735, 43.90582 ], [ -116.97611, 43.89476 ], [ -116.98383, 43.88005 ], [ -116.95442, 43.88015 ], [ -116.95452, 43.83649 ], [ -116.91396, 43.8362 ], [ -116.9138, 43.82172 ], [ -116.89409, 43.82176 ], [ -116.89375, 43.80738 ], [ -116.85313, 43.80739 ], [ -116.85315, 43.79271 ], [ -116.79319, 43.79269 ], [ -116.7932, 43.79986 ], [ -116.75311, 43.79993 ], [ -116.75314, 43.80719 ], [ -116.71267, 43.80716 ], [ -116.71276, 43.87474 ], [ -116.71224, 43.87976 ], [ -116.7125, 43.98133 ], [ -116.61225, 43.98098 ], [ -116.57222, 43.98048 ], [ -116.57214, 44.00921 ], [ -116.53217, 44.00884 ], [ -116.53212, 44.06602 ], [ -116.45255, 44.06541 ], [ -116.45234, 44.13782 ], [ -116.45207, 44.15146 ], [ -116.6128, 44.15184 ], [ -116.71158, 44.15171 ], [ -116.77163, 44.15183 ], [ -116.80951, 44.15232 ], [ -116.89779, 44.15259 ] ] ] } },
{ "type": "Feature", "properties": { "NAME": "Owyhee", "GEOID": "16073" }, "geometry": { "type": "Polygon", "coordinates": [ [ [ -117.02654, 43.6808 ], [ -117.0269, 43.6408 ], [ -117.02671, 43.57632 ], [ -117.02701, 43.54418 ], [ -117.02673, 43.48418 ], [ -117.02664, 43.19899 ], [ -117.02687, 43.127 ], [ -117.02659, 43.07621 ], [ -117.0267, 43.02781 ], [ -117.02628, 42.97227 ], [ -117.02653, 42.90472 ], [ -117.02623, 42.83119 ], [ -117.02666, 42.62488 ], [ -117.02645, 42.57708 ], [ -117.02653, 42.37487 ], [ -117.02613, 42.35719 ], [ -117.02638, 42.30847 ], [ -117.0262, 42.1664 ], [ -117.02658, 42.12489 ], [ -117.0261, 42.11765 ], [ -117.02634, 42.06248 ], [ -117.0262, 42.00019 ], [ -117.00891, 41.99876 ], [ -116.9011, 41.99885 ], [ -116.69753, 41.99786 ], [ -116.57639, 41.99741 ], [ -116.49819, 41.99744 ], [ -116.43879, 41.99665 ], [ -116.36848, 41.99628 ], [ -116.33465, 41.99727 ], [ -116.3145, 41.99707 ], [ -116.24396, 41.99765 ], [ -116.06662, 41.9975 ], [ -116.04537, 41.99633 ], [ -115.96587, 41.99638 ], [ -115.89026, 41.99717 ], [ -115.84278, 41.99678 ], [ -115.81206, 41.99696 ], [ -115.71799, 41.99692 ], [ -115.51533, 41.99688 ], [ -115.34382, 41.99631 ], [ -115.22603, 41.99638 ], [ -115.11877, 41.99613 ], [ -115.03816, 41.99628 ], [ -115.03784, 42.29004 ], [ -115.03797, 42.37501 ], [ -115.03762, 42.59937 ], [ -115.0377, 42.76841 ], [ -115.16191, 42.76799 ], [ -115.33645, 42.76766 ], [ -115.45422, 42.76794 ], [ -115.45404, 42.8256 ], [ -115.45423, 42.85113 ], [ -115.44141, 42.8511 ], [ -115.44152, 42.93113 ], [ -115.4559, 42.92829 ], [ -115.46829, 42.92793 ], [ -115.48441, 42.92991 ], [ -115.49493, 42.92643 ], [ -115.50061, 42.92723 ], [ -115.51028, 42.93254 ], [ -115.5147, 42.93723 ], [ -115.53039, 42.94269 ], [ -115.53642, 42.94293 ], [ -115.55356, 42.93988 ], [ -115.55976, 42.9349 ], [ -115.56661, 42.9345 ], [ -115.58116, 42.93719 ], [ -115.5907, 42.93661 ], [ -115.60443, 42.9377 ], [ -115.61171, 42.9466 ], [ -115.61239, 42.94972 ], [ -115.62285, 42.9557 ], [ -115.63561, 42.95604 ], [ -115.64767, 42.95325 ], [ -115.65621, 42.94801 ], [ -115.67096, 42.94348 ], [ -115.69447, 42.93936 ], [ -115.72251, 42.94069 ], [ -115.73286, 42.93903 ], [ -115.74082, 42.943 ], [ -115.74818, 42.9387 ], [ -115.7558, 42.93764 ], [ -115.76136, 42.93905 ], [ -115.7715, 42.93866 ], [ -115.78134, 42.94335 ], [ -115.78815, 42.94449 ], [ -115.79631, 42.94871 ], [ -115.79676, 42.9516 ], [ -115.78607, 42.96039 ], [ -115.78854, 42.96926 ], [ -115.79181, 42.97235 ], [ -115.80828, 42.97415 ], [ -115.81715, 42.97236 ], [ -115.83212, 42.97296 ], [ -115.84627, 42.96926 ], [ -115.8647, 42.97478 ], [ -115.86756, 42.98295 ], [ -115.87843, 42.98891 ], [ -115.88729, 42.98763 ], [ -115.89347, 42.98267 ], [ -115.90672, 42.98228 ], [ -115.9171, 42.9874 ], [ -115.91648, 42.99328 ], [ -115.926, 43.00133 ], [ -115.93566, 43.00173 ], [ -115.94502, 42.99384 ], [ -115.95371, 42.99236 ], [ -115.961, 42.98908 ], [ -115.96747, 42.98021 ], [ -115.96679, 42.97726 ], [ -115.97211, 42.97048 ], [ -115.96185, 42.9563 ], [ -115.96125, 42.95108 ], [ -115.96558, 42.94352 ], [ -115.97858, 42.94758 ], [ -116.00017, 42.94873 ], [ -116.01283, 42.95021 ], [ -116.03217, 42.96188 ], [ -116.04114, 42.97535 ], [ -116.05008, 42.98531 ], [ -116.05382, 42.98731 ], [ -116.06395, 42.98781 ], [ -116.07516, 42.98574 ], [ -116.09074, 42.98788 ], [ -116.09672, 42.99536 ], [ -116.10489, 42.99987 ], [ -116.11554, 43.01083 ], [ -116.12517, 43.01447 ], [ -116.14582, 43.01342 ], [ -116.14938, 43.01586 ], [ -116.14883, 43.02126 ], [ -116.14074, 43.02701 ], [ -116.14158, 43.03412 ], [ -116.15109, 43.03934 ], [ -116.16715, 43.03781 ], [ -116.1733, 43.03871 ], [ -116.17771, 43.04265 ], [ -116.1862, 43.04361 ], [ -116.20174, 43.04893 ], [ -116.20602, 43.05364 ], [ -116.20814, 43.06383 ], [ -116.20636, 43.07069 ], [ -116.19568, 43.0779 ], [ -116.19167, 43.08247 ], [ -116.20598, 43.09323 ], [ -116.22386, 43.09644 ], [ -116.23738, 43.09446 ], [ -116.24416, 43.09788 ], [ -116.25525, 43.10067 ], [ -116.26684, 43.1061 ], [ -116.26768, 43.11625 ], [ -116.27656, 43.11926 ], [ -116.28591, 43.11995 ], [ -116.29995, 43.11922 ], [ -116.3051, 43.12058 ], [ -116.30967, 43.12514 ], [ -116.31279, 43.13621 ], [ -116.31941, 43.14397 ], [ -116.33257, 43.14843 ], [ -116.33604, 43.16137 ], [ -116.3445, 43.16475 ], [ -116.35174, 43.16481 ], [ -116.36471, 43.17565 ], [ -116.36806, 43.18125 ], [ -116.38088, 43.18823 ], [ -116.38595, 43.19358 ], [ -116.3827, 43.20545 ], [ -116.38435, 43.21711 ], [ -116.37606, 43.23109 ], [ -116.37718, 43.23931 ], [ -116.38859, 43.25317 ], [ -116.40094, 43.26021 ], [ -116.40264, 43.27361 ], [ -116.41025, 43.28442 ], [ -116.42527, 43.29354 ], [ -116.43304, 43.29625 ], [ -116.4399, 43.2958 ], [ -116.44733, 43.29251 ], [ -116.46306, 43.29056 ], [ -116.47208, 43.29122 ], [ -116.49154, 43.28716 ], [ -116.50117, 43.28213 ], [ -116.5119, 43.29052 ], [ -116.52183, 43.29791 ], [ -116.53616, 43.29839 ], [ -116.54461, 43.3005 ], [ -116.5504, 43.2992 ], [ -116.56285, 43.30272 ], [ -116.57833, 43.3058 ], [ -116.58355, 43.31605 ], [ -116.59336, 43.32716 ], [ -116.60034, 43.33169 ], [ -116.59969, 43.3369 ], [ -116.60716, 43.35133 ], [ -116.61207, 43.35538 ], [ -116.61794, 43.3652 ], [ -116.62257, 43.37001 ], [ -116.62908, 43.37137 ], [ -116.64098, 43.3779 ], [ -116.6474, 43.37716 ], [ -116.65649, 43.38262 ], [ -116.66735, 43.3866 ], [ -116.67648, 43.40054 ], [ -116.6844, 43.4062 ], [ -116.70017, 43.41461 ], [ -116.70392, 43.41948 ], [ -116.71369, 43.42636 ], [ -116.723, 43.43468 ], [ -116.72872, 43.43652 ], [ -116.73199, 43.44179 ], [ -116.74161, 43.45067 ], [ -116.74433, 43.4552 ], [ -116.77712, 43.47289 ], [ -116.78134, 43.47863 ], [ -116.78145, 43.48978 ], [ -116.78419, 43.49835 ], [ -116.78303, 43.50555 ], [ -116.78492, 43.51494 ], [ -116.78092, 43.5225 ], [ -116.78182, 43.52926 ], [ -116.79083, 43.53733 ], [ -116.80003, 43.54797 ], [ -116.80281, 43.55922 ], [ -116.81193, 43.57396 ], [ -116.81651, 43.57792 ], [ -116.82895, 43.58356 ], [ -116.83738, 43.59072 ], [ -116.84498, 43.5944 ], [ -116.8628, 43.594 ], [ -116.86835, 43.59187 ], [ -116.88116, 43.59573 ], [ -116.89252, 43.59757 ], [ -116.91154, 43.60308 ], [ -116.92404, 43.61981 ], [ -116.93297, 43.6258 ], [ -116.95531, 43.63568 ], [ -116.96003, 43.64099 ], [ -116.96412, 43.65201 ], [ -116.96347, 43.66006 ], [ -116.9682, 43.66741 ], [ -116.98025, 43.67205 ], [ -116.99366, 43.67154 ], [ -117.01498, 43.6758 ], [ -117.02654, 43.6808 ] ] ] } },
{ "type": "Feature", "properties": { "NAME": "Washington", "GEOID": "16087" }, "geometry": { "type": "Polygon", "coordinates": [ [ [ -116.89971, 44.84061 ], [ -116.90105, 44.83568 ], [ -116.90577, 44.83479 ], [ -116.923, 44.81098 ], [ -116.9281, 44.80838 ], [ -116.9322, 44.80278 ], [ -116.9336, 44.79568 ], [ -116.9308, 44.79098 ], [ -116.9347, 44.78388 ], [ -116.9433, 44.78168 ], [ -116.949, 44.77798 ], [ -116.9668, 44.77518 ], [ -116.9903, 44.76008 ], [ -117.0003, 44.75608 ], [ -117.0148, 44.7566 ], [ -117.02162, 44.75075 ], [ -117.02942, 44.7511 ], [ -117.04422, 44.74514 ], [ -117.04782, 44.74153 ], [ -117.05023, 44.73255 ], [ -117.0583, 44.73048 ], [ -117.06227, 44.72714 ], [ -117.06045, 44.72167 ], [ -117.06382, 44.70362 ], [ -117.07222, 44.70052 ], [ -117.07912, 44.69217 ], [ -117.08077, 44.68416 ], [ -117.07857, 44.68033 ], [ -117.0808, 44.67377 ], [ -117.09122, 44.66881 ], [ -117.09587, 44.66474 ], [ -117.09679, 44.65739 ], [ -117.09497, 44.65201 ], [ -117.09821, 44.64765 ], [ -117.09822, 44.64069 ], [ -117.10823, 44.62711 ], [ -117.1159, 44.62334 ], [ -117.12052, 44.61466 ], [ -117.12541, 44.59224 ], [ -117.12475, 44.58383 ], [ -117.13396, 44.57524 ], [ -117.14603, 44.5686 ], [ -117.14793, 44.56214 ], [ -117.14293, 44.55724 ], [ -117.14416, 44.54565 ], [ -117.15241, 44.5318 ], [ -117.16103, 44.52517 ], [ -117.16719, 44.52343 ], [ -117.18158, 44.52296 ], [ -117.19163, 44.50989 ], [ -117.19249, 44.50327 ], [ -117.20024, 44.49203 ], [ -117.20845, 44.48593 ], [ -117.21637, 44.48616 ], [ -117.2241, 44.48373 ], [ -117.22537, 44.47548 ], [ -117.22155, 44.47015 ], [ -117.22038, 44.46304 ], [ -117.21702, 44.45904 ], [ -117.21474, 44.44923 ], [ -117.21656, 44.44228 ], [ -117.21507, 44.42716 ], [ -117.22726, 44.40524 ], [ -117.23308, 44.4008 ], [ -117.24268, 44.39655 ], [ -117.24303, 44.39097 ], [ -117.23783, 44.38239 ], [ -117.23512, 44.37385 ], [ -117.21691, 44.36016 ], [ -117.20696, 44.35521 ], [ -117.20267, 44.34981 ], [ -117.19615, 44.34636 ], [ -117.18984, 44.33501 ], [ -117.1922, 44.32863 ], [ -117.19577, 44.32712 ], [ -117.20069, 44.3169 ], [ -117.2055, 44.31179 ], [ -117.21784, 44.30718 ], [ -117.22274, 44.29833 ], [ -117.21763, 44.28906 ], [ -117.2075, 44.28272 ], [ -117.20039, 44.27544 ], [ -117.18431, 44.26715 ], [ -117.17034, 44.25889 ], [ -117.15705, 44.25749 ], [ -117.14126, 44.25851 ], [ -117.13497, 44.26182 ], [ -117.13087, 44.26949 ], [ -117.11986, 44.27827 ], [ -117.11162, 44.28067 ], [ -117.10421, 44.27994 ], [ -117.09357, 44.26937 ], [ -117.09093, 44.26031 ], [ -117.07835, 44.24988 ], [ -117.06728, 44.24401 ], [ -117.05863, 44.23633 ], [ -117.05651, 44.23087 ], [ -117.05143, 44.22875 ], [ -117.04615, 44.23067 ], [ -117.04228, 44.24278 ], [ -117.03186, 44.24864 ], [ -117.02528, 44.2485 ], [ -117.01692, 44.24539 ], [ -117.00799, 44.24642 ], [ -116.98613, 44.24535 ], [ -116.97538, 44.24239 ], [ -116.97199, 44.23466 ], [ -116.97432, 44.22861 ], [ -116.97022, 44.21749 ], [ -116.9737, 44.20802 ], [ -116.97207, 44.198 ], [ -116.96726, 44.19458 ], [ -116.94759, 44.19126 ], [ -116.93544, 44.19396 ], [ -116.92464, 44.19104 ], [ -116.92295, 44.18736 ], [ -116.91487, 44.18269 ], [ -116.90361, 44.17999 ], [ -116.89576, 44.17127 ], [ -116.89431, 44.15811 ], [ -116.89779, 44.15259 ], [ -116.80951, 44.15232 ], [ -116.77163, 44.15183 ], [ -116.71158, 44.15171 ], [ -116.6128, 44.15184 ], [ -116.45207, 44.15146 ], [ -116.39261, 44.15103 ], [ -116.35849, 44.15116 ], [ -116.36028, 44.15422 ], [ -116.35411, 44.16766 ], [ -116.35319, 44.17552 ], [ -116.3566, 44.1824 ], [ -116.35368, 44.18635 ], [ -116.35665, 44.19445 ], [ -116.35538, 44.20321 ], [ -116.35703, 44.20723 ], [ -116.34879, 44.21061 ], [ -116.34332, 44.2178 ], [ -116.34768, 44.22154 ], [ -116.34361, 44.22577 ], [ -116.34744, 44.23419 ], [ -116.35148, 44.23782 ], [ -116.34639, 44.24125 ], [ -116.35025, 44.24503 ], [ -116.34928, 44.25189 ], [ -116.34403, 44.25642 ], [ -116.34458, 44.26369 ], [ -116.34234, 44.26814 ], [ -116.34422, 44.27384 ], [ -116.34179, 44.277 ], [ -116.34502, 44.28737 ], [ -116.35119, 44.28776 ], [ -116.34384, 44.29881 ], [ -116.34167, 44.31069 ], [ -116.34739, 44.3221 ], [ -116.34108, 44.32749 ], [ -116.34018, 44.33679 ], [ -116.33123, 44.34869 ], [ -116.33229, 44.35844 ], [ -116.33578, 44.36515 ], [ -116.32912, 44.37633 ], [ -116.32743, 44.38305 ], [ -116.32232, 44.38703 ], [ -116.3236, 44.39313 ], [ -116.31912, 44.40532 ], [ -116.31934, 44.42118 ], [ -116.30829, 44.42344 ], [ -116.3062, 44.43225 ], [ -116.29988, 44.44458 ], [ -116.40765, 44.44444 ], [ -116.5289, 44.49155 ], [ -116.52917, 44.61515 ], [ -116.57525, 44.61479 ], [ -116.60321, 44.61519 ], [ -116.59825, 44.62535 ], [ -116.59926, 44.63686 ], [ -116.60941, 44.65136 ], [ -116.61916, 44.65764 ], [ -116.62415, 44.66327 ], [ -116.62503, 44.83895 ], [ -116.89971, 44.84061 ] ] ] } },
{ "type": "Feature", "properties": { "NAME": "Canyon", "GEOID": "16027" }, "geometry": { "type": "Polygon", "coordinates": [ [ [ -117.02654, 43.6808 ], [ -117.01498, 43.6758 ], [ -116.99366, 43.67154 ], [ -116.98025, 43.67205 ], [ -116.9682, 43.66741 ], [ -116.96347, 43.66006 ], [ -116.96412, 43.65201 ], [ -116.96003, 43.64099 ], [ -116.95531, 43.63568 ], [ -116.93297, 43.6258 ], [ -116.92404, 43.61981 ], [ -116.91154, 43.60308 ], [ -116.89252, 43.59757 ], [ -116.88116, 43.59573 ], [ -116.86835, 43.59187 ], [ -116.8628, 43.594 ], [ -116.84498, 43.5944 ], [ -116.83738, 43.59072 ], [ -116.82895, 43.58356 ], [ -116.81651, 43.57792 ], [ -116.81193, 43.57396 ], [ -116.80281, 43.55922 ], [ -116.80003, 43.54797 ], [ -116.79083, 43.53733 ], [ -116.78182, 43.52926 ], [ -116.78092, 43.5225 ], [ -116.78492, 43.51494 ], [ -116.78303, 43.50555 ], [ -116.78419, 43.49835 ], [ -116.78145, 43.48978 ], [ -116.78134, 43.47863 ], [ -116.77712, 43.47289 ], [ -116.74433, 43.4552 ], [ -116.74161, 43.45067 ], [ -116.73199, 43.44179 ], [ -116.72872, 43.43652 ], [ -116.723, 43.43468 ], [ -116.71369, 43.42636 ], [ -116.70392, 43.41948 ], [ -116.70017, 43.41461 ], [ -116.6844, 43.4062 ], [ -116.67648, 43.40054 ], [ -116.66735, 43.3866 ], [ -116.65649, 43.38262 ], [ -116.6474, 43.37716 ], [ -116.64098, 43.3779 ], [ -116.62908, 43.37137 ], [ -116.62257, 43.37001 ], [ -116.61794, 43.3652 ], [ -116.61207, 43.35538 ], [ -116.60716, 43.35133 ], [ -116.59969, 43.3369 ], [ -116.60034, 43.33169 ], [ -116.59336, 43.32716 ], [ -116.58355, 43.31605 ], [ -116.57833, 43.3058 ], [ -116.56285, 43.30272 ], [ -116.5504, 43.2992 ], [ -116.54461, 43.3005 ], [ -116.53616, 43.29839 ], [ -116.52183, 43.29791 ], [ -116.5119, 43.29052 ], [ -116.51182, 43.32894 ], [ -116.51233, 43.37176 ], [ -116.51368, 43.372 ], [ -116.51336, 43.45932 ], [ -116.4736, 43.45922 ], [ -116.47339, 43.48832 ], [ -116.47364, 43.56034 ], [ -116.47349, 43.6341 ], [ -116.51312, 43.63418 ], [ -116.51254, 43.71003 ], [ -116.51273, 43.73445 ], [ -116.5125, 43.80716 ], [ -116.55241, 43.8071 ], [ -116.71267, 43.80716 ], [ -116.75314, 43.80719 ], [ -116.75311, 43.79993 ], [ -116.7932, 43.79986 ], [ -116.79319, 43.79269 ], [ -116.85315, 43.79271 ], [ -116.85313, 43.80739 ], [ -116.89375, 43.80738 ], [ -116.89409, 43.82176 ], [ -116.9138, 43.82172 ], [ -116.91396, 43.8362 ], [ -116.95452, 43.83649 ], [ -116.95442, 43.88015 ], [ -116.98383, 43.88005 ], [ -116.98235, 43.86884 ], [ -116.99142, 43.86386 ], [ -116.99739, 43.86487 ], [ -117.00719, 43.86364 ], [ -117.01934, 43.85942 ], [ -117.02012, 43.85396 ], [ -117.0107, 43.84975 ], [ -117.01283, 43.84 ], [ -117.0232, 43.84189 ], [ -117.03189, 43.83416 ], [ -117.03229, 43.82877 ], [ -117.02222, 43.82214 ], [ -117.02208, 43.81586 ], [ -117.02663, 43.80811 ], [ -117.02638, 43.74988 ], [ -117.02669, 43.74535 ], [ -117.02654, 43.6808 ] ] ] } }
]
}
